{"fetched_at":"2026-03-29T02:12:04Z","count":15717,"tles":[{"name":"STARLINK-31814","line1":"1 59802U 24093W   26087.34568667 -.00000385  00000+0 -44805-5 0  9993","line2":"2 59802  43.0016 103.9478 0000858 267.0968  92.9785 15.27578117105540","category":"Starlink"}]}