{
  "norad_id": 59802,
  "name": "STARLINK-31814",
  "history": [
    {
      "epoch": "2026-03-28T08:17:47.328288",
      "apogee_km": 483.6436305114157,
      "perigee_km": 482.4658383382857,
      "latitude_deg": 29.220948778551374,
      "longitude_deg": -166.61407968006097,
      "semi_major_axis_km": 6861.19173442485,
      "eccentricity": 8.583e-05,
      "inclination_deg": 43.0016,
      "raan_deg": 103.9478,
      "arg_perigee_deg": 267.0968,
      "mean_anomaly_deg": 92.9785,
      "mean_motion_rev_day": 15.27578117
    }
  ]
}